FENGYUN 1C DEB          
1 30753U 99025ATP 17345.52073742  .00000498  00000-0  33152-3 0  9991
2 30753  99.0559  17.3021 0061316 265.6348  93.7812 14.05069025552387
